[{"OBJECT_NAME":"JILIN-1 GAOFEN 3D04","OBJECT_ID":"2022-046B","EPOCH":"2026-03-09T17:36:07.679808","MEAN_MOTION":15.76354751,"ECCENTRICITY":0.00015268,"INCLINATION":97.4899,"RA_OF_ASC_NODE":183.6662,"ARG_OF_PERICENTER":245.0805,"MEAN_ANOMALY":115.0302,"EPHEMERIS_TYPE":0,"CLASSIFICATION_TYPE":"U","NORAD_CAT_ID":52389,"ELEMENT_SET_NO":999,"REV_AT_EPOCH":21487,"BSTAR":0.001117663,"MEAN_MOTION_DOT":0.00178961,"MEAN_MOTION_DDOT":0},{"OBJECT_NAME":"STARLINK-36416","OBJECT_ID":"2026-020P","EPOCH":"2026-03-09T05:27:11.104704","MEAN_MOTION":15.76455176,"ECCENTRICITY":0.0003561,"INCLINATION":42.9966,"RA_OF_ASC_NODE":144.9421,"ARG_OF_PERICENTER":224.7544,"MEAN_ANOMALY":135.3038,"EPHEMERIS_TYPE":0,"CLASSIFICATION_TYPE":"U","NORAD_CAT_ID":67630,"ELEMENT_SET_NO":999,"REV_AT_EPOCH":601,"BSTAR":0.0017122407,"MEAN_MOTION_DOT":0.00289232,"MEAN_MOTION_DDOT":0}]
