JILIN-1 GAOFEN 3D04     
1 52389U 22046B   26068.73342222  .00178961  00000+0  11177-2 0  9998
2 52389  97.4899 183.6662 0001527 245.0805 115.0302 15.76354751214874
STARLINK-36416          
1 67630U 26020P   26068.22721186  .00289232  00000+0  17122-2 0  9993
2 67630  42.9966 144.9421 0003561 224.7544 135.3038 15.76455176  6015
